{"type": "FeatureCollection", "features": [{"type": "Feature", "properties": {"norad_id": 22490, "name": "SCD 1", "group": "resource", "lat": 24.948546783726353, "lon": 13.854132446306677, "alt_km": 754.0449477624725, "timestamp": "2025-12-11T15:53:39.198431+00:00", "meta": {"OBJECT_NAME": "SCD 1", "OBJECT_ID": "1993-009B", "EPOCH": "2025-12-11T06:13:40.265184", "MEAN_MOTION": 14.45997668, "ECCENTRICITY": 0.00417581, "INCLINATION": 24.9702, "RA_OF_ASC_NODE": 287.8252, "ARG_OF_PERICENTER": 309.2904, "MEAN_ANOMALY": 198.1312, "EPHEMERIS_TYPE": 0, "CLASSIFICATION_TYPE": "U", "NORAD_CAT_ID": 22490, "ELEMENT_SET_NO": 999, "REV_AT_EPOCH": 73388, "BSTAR": 0.0001626191, "MEAN_MOTION_DOT": 7.81e-06, "MEAN_MOTION_DDOT": 0}, "tle": {"line1": "1 22490U 93009B   25345.25949381  .00000781  00000+0  16262-3 0  9993", "line2": "2 22490  24.9702 287.8252 0041758 309.2904 198.1312 14.45997668733882"}}, "geometry": {"type": "Point", "coordinates": [13.854132446306677, 24.948546783726353]}}, {"type": "Feature", "properties": {"norad_id": 25397, "name": "TECHSAT 1B (GO-32)", "group": "resource", "lat": 46.30507752417944, "lon": -40.689827861008226, "alt_km": 805.0162177911816, "timestamp": "2025-12-11T15:53:39.198458+00:00", "meta": {"OBJECT_NAME": "TECHSAT 1B (GO-32)", "OBJECT_ID": "1998-043D", "EPOCH": "2025-12-11T05:33:31.561920", "MEAN_MOTION": 14.24376315, "ECCENTRICITY": 0.00020961, "INCLINATION": 98.9919, "RA_OF_ASC_NODE": 328.4089, "ARG_OF_PERICENTER": 59.8118, "MEAN_ANOMALY": 300.3268, "EPHEMERIS_TYPE": 0, "CLASSIFICATION_TYPE": "U", "NORAD_CAT_ID": 25397, "ELEMENT_SET_NO": 999, "REV_AT_EPOCH": 42457, "BSTAR": 8.9913274e-05, "MEAN_MOTION_DOT": 1.61e-06, "MEAN_MOTION_DDOT": 0}, "tle": {"line1": "1 25397U 98043D   25345.23161530  .00000161  00000+0  89913-4 0  9991", "line2": "2 25397  98.9919 328.4089 0002096  59.8118 300.3268 14.24376315424576"}}, "geometry": {"type": "Point", "coordinates": [-40.689827861008226, 46.30507752417944]}}, {"type": "Feature", "properties": {"norad_id": 25504, "name": "SCD 2", "group": "resource", "lat": 20.825956320121755, "lon": -86.19628907717374, "alt_km": 747.431609734007, "timestamp": "2025-12-11T15:53:39.198474+00:00", "meta": {"OBJECT_NAME": "SCD 2", "OBJECT_ID": "1998-060A", "EPOCH": "2025-12-11T04:28:20.004960", "MEAN_MOTION": 14.45421882, "ECCENTRICITY": 0.00166135, "INCLINATION": 24.9931, "RA_OF_ASC_NODE": 151.4748, "ARG_OF_PERICENTER": 297.0504, "MEAN_ANOMALY": 224.1124, "EPHEMERIS_TYPE": 0, "CLASSIFICATION_TYPE": "U", "NORAD_CAT_ID": 25504, "ELEMENT_SET_NO": 999, "REV_AT_EPOCH": 43309, "BSTAR": 0.00010877175, "MEAN_MOTION_DOT": 5.72e-06, "MEAN_MOTION_DDOT": 0}, "tle": {"line1": "1 25504U 98060A   25345.18634265  .00000572  00000+0  10877-3 0  9992", "line2": "2 25504  24.9931 151.4748 0016613 297.0504 224.1124 14.45421882433094"}}, "geometry": {"type": "Point", "coordinates": [-86.19628907717374, 20.825956320121755]}}, {"type": "Feature", "properties": {"norad_id": 25757, "name": "DLR-TUBSAT", "group": "resource", "lat": 22.630257028588318, "lon": 153.78394530587644, "alt_km": 709.9814404161416, "timestamp": "2025-12-11T15:53:39.198501+00:00", "meta": {"OBJECT_NAME": "DLR-TUBSAT", "OBJECT_ID": "1999-029B", "EPOCH": "2025-12-11T05:15:08.541504", "MEAN_MOTION": 14.5235671, "ECCENTRICITY": 0.00138086, "INCLINATION": 98.6563, "RA_OF_ASC_NODE": 329.6857, "ARG_OF_PERICENTER": 197.5136, "MEAN_ANOMALY": 162.5584, "EPHEMERIS_TYPE": 0, "CLASSIFICATION_TYPE": "U", "NORAD_CAT_ID": 25757, "ELEMENT_SET_NO": 999, "REV_AT_EPOCH": 40596, "BSTAR": 7.1437978e-05, "MEAN_MOTION_DOT": 2.43e-06, "MEAN_MOTION_DDOT": 0}, "tle": {"line1": "1 25757U 99029B   25345.21884886  .00000243  00000+0  71438-4 0  9994", "line2": "2 25757  98.6563 329.6857 0013808 197.5136 162.5584 14.52356710405966"}}, "geometry": {"type": "Point", "coordinates": [153.78394530587644, 22.630257028588318]}}, {"type": "Feature", "properties": {"norad_id": 25994, "name": "TERRA", "group": "resource", "lat": -7.343903430738208, "lon": -143.6489392429763, "alt_km": 694.2158260118558, "timestamp": "2025-12-11T15:53:39.198524+00:00", "meta": {"OBJECT_NAME": "TERRA", "OBJECT_ID": "1999-068A", "EPOCH": "2025-12-11T05:21:42.625728", "MEAN_MOTION": 14.60899616, "ECCENTRICITY": 0.00036025, "INCLINATION": 97.9751, "RA_OF_ASC_NODE": 36.9636, "ARG_OF_PERICENTER": 97.5535, "MEAN_ANOMALY": 303.0659, "EPHEMERIS_TYPE": 0, "CLASSIFICATION_TYPE": "U", "NORAD_CAT_ID": 25994, "ELEMENT_SET_NO": 999, "REV_AT_EPOCH": 38216, "BSTAR": 0.00018076247, "MEAN_MOTION_DOT": 8.4e-06, "MEAN_MOTION_DDOT": 0}, "tle": {"line1": "1 25994U 99068A   25345.22341002  .00000840  00000+0  18076-3 0  9990", "line2": "2 25994  97.9751  36.9636 0003602  97.5535 303.0659 14.60899616382163"}}, "geometry": {"type": "Point", "coordinates": [-143.6489392429763, -7.343903430738208]}}, {"type": "Feature", "properties": {"norad_id": 27004, "name": "MAROC-TUBSAT", "group": "resource", "lat": 12.898579426529166, "lon": -23.645565892003518, "alt_km": 1001.167099042832, "timestamp": "2025-12-11T15:53:39.198536+00:00", "meta": {"OBJECT_NAME": "MAROC-TUBSAT", "OBJECT_ID": "2001-056D", "EPOCH": "2025-12-11T05:26:35.023200", "MEAN_MOTION": 13.70252758, "ECCENTRICITY": 0.00190927, "INCLINATION": 99.7912, "RA_OF_ASC_NODE": 153.6453, "ARG_OF_PERICENTER": 264.1827, "MEAN_ANOMALY": 275.8386, "EPHEMERIS_TYPE": 0, "CLASSIFICATION_TYPE": "U", "NORAD_CAT_ID": 27004, "ELEMENT_SET_NO": 999, "REV_AT_EPOCH": 20044, "BSTAR": 4.2687998e-05, "MEAN_MOTION_DOT": -9e-08, "MEAN_MOTION_DDOT": 0}, "tle": {"line1": "1 27004U 01056D   25345.22679425 -.00000009  00000+0  42688-4 0  9992", "line2": "2 27004  99.7912 153.6453 0019092 264.1827 275.8386 13.70252758200449"}}, "geometry": {"type": "Point", "coordinates": [-23.645565892003518, 12.898579426529166]}}, {"type": "Feature", "properties": {"norad_id": 27424, "name": "AQUA", "group": "resource", "lat": 57.7053424616689, "lon": -67.00268550514645, "alt_km": 681.3714036118427, "timestamp": "2025-12-11T15:53:39.198548+00:00", "meta": {"OBJECT_NAME": "AQUA", "OBJECT_ID": "2002-022A", "EPOCH": "2025-12-11T08:10:38.402400", "MEAN_MOTION": 14.61804511, "ECCENTRICITY": 0.0001029, "INCLINATION": 98.4037, "RA_OF_ASC_NODE": 306.197, "ARG_OF_PERICENTER": 115.2899, "MEAN_ANOMALY": 52.3929, "EPHEMERIS_TYPE": 0, "CLASSIFICATION_TYPE": "U", "NORAD_CAT_ID": 27424, "ELEMENT_SET_NO": 999, "REV_AT_EPOCH": 25582, "BSTAR": 0.00038470857, "MEAN_MOTION_DOT": 1.872e-05, "MEAN_MOTION_DDOT": 0}, "tle": {"line1": "1 27424U 02022A   25345.34072225  .00001872  00000+0  38471-3 0  9992", "line2": "2 27424  98.4037 306.1970 0001029 115.2899  52.3929 14.61804511255828"}}, "geometry": {"type": "Point", "coordinates": [-67.00268550514645, 57.7053424616689]}}, {"type": "Feature", "properties": {"norad_id": 28051, "name": "IRS-P6 (RESOURCESAT-1)", "group": "resource", "lat": 22.32732388892529, "lon": 22.716318509068042, "alt_km": 814.4844823823605, "timestamp": "2025-12-11T15:53:39.198559+00:00", "meta": {"OBJECT_NAME": "IRS-P6 (RESOURCESAT-1)", "OBJECT_ID": "2003-046A", "EPOCH": "2025-12-11T07:42:57.278592", "MEAN_MOTION": 14.36073626, "ECCENTRICITY": 0.0064021, "INCLINATION": 98.2177, "RA_OF_ASC_NODE": 25.7938, "ARG_OF_PERICENTER": 184.9342, "MEAN_ANOMALY": 237.303, "EPHEMERIS_TYPE": 0, "CLASSIFICATION_TYPE": "U", "NORAD_CAT_ID": 28051, "ELEMENT_SET_NO": 999, "REV_AT_EPOCH": 15356, "BSTAR": 9.3608614e-05, "MEAN_MOTION_DOT": 2.38e-06, "MEAN_MOTION_DDOT": 0}, "tle": {"line1": "1 28051U 03046A   25345.32149628  .00000238  00000+0  93609-4 0  9996", "line2": "2 28051  98.2177  25.7938 0064021 184.9342 237.3030 14.36073626153566"}}, "geometry": {"type": "Point", "coordinates": [22.716318509068042, 22.32732388892529]}}, {"type": "Feature", "properties": {"norad_id": 28220, "name": "SHIYAN-1 (SY-1)", "group": "resource", "lat": -77.20733588160601, "lon": -170.52685498875735, "alt_km": 487.5536200865772, "timestamp": "2025-12-11T15:53:39.198570+00:00", "meta": {"OBJECT_NAME": "SHIYAN-1 (SY-1)", "OBJECT_ID": "2004-012A", "EPOCH": "2025-12-11T03:45:31.275072", "MEAN_MOTION": 15.28073699, "ECCENTRICITY": 0.00056737, "INCLINATION": 97.8932, "RA_OF_ASC_NODE": 46.601, "ARG_OF_PERICENTER": 332.2791, "MEAN_ANOMALY": 27.8144, "EPHEMERIS_TYPE": 0, "CLASSIFICATION_TYPE": "U", "NORAD_CAT_ID": 28220, "ELEMENT_SET_NO": 999, "REV_AT_EPOCH": 18232, "BSTAR": 0.00071890736, "MEAN_MOTION_DOT": 0.00019641, "MEAN_MOTION_DDOT": 0}, "tle": {"line1": "1 28220U 04012A   25345.15661198  .00019641  00000+0  71891-3 0  9996", "line2": "2 28220  97.8932  46.6010 0005673 332.2791  27.8144 15.28073699182321"}}, "geometry": {"type": "Point", "coordinates": [-170.52685498875735, -77.20733588160601]}}, {"type": "Feature", "properties": {"norad_id": 28376, "name": "AURA", "group": "resource", "lat": -13.399935316289504, "lon": 113.88638148082629, "alt_km": 694.8338499248293, "timestamp": "2025-12-11T15:53:39.198581+00:00", "meta": {"OBJECT_NAME": "AURA", "OBJECT_ID": "2004-026A", "EPOCH": "2025-12-11T06:47:34.738944", "MEAN_MOTION": 14.60942223, "ECCENTRICITY": 0.00012099, "INCLINATION": 98.3183, "RA_OF_ASC_NODE": 295.5029, "ARG_OF_PERICENTER": 94.106, "MEAN_ANOMALY": 266.0279, "EPHEMERIS_TYPE": 0, "CLASSIFICATION_TYPE": "U", "NORAD_CAT_ID": 28376, "ELEMENT_SET_NO": 999, "REV_AT_EPOCH": 13877, "BSTAR": 0.00039929501, "MEAN_MOTION_DOT": 1.908e-05, "MEAN_MOTION_DDOT": 0}, "tle": {"line1": "1 28376U 04026A   25345.28304096  .00001908  00000+0  39930-3 0  9993", "line2": "2 28376  98.3183 295.5029 0001209  94.1060 266.0279 14.60942223138775"}}, "geometry": {"type": "Point", "coordinates": [113.88638148082629, -13.399935316289504]}}]}